$$SOE
2461295.500000000, A.D. 2026-Sep-12 00:00:00.0000, 2.116747386487280E+08, 1.882614370153618E+08, 1.253063187806733E+08,
2461302.500000000, A.D. 2026-Sep-19 00:00:00.0000, 2.036612422714265E+08, 1.980865681768444E+08, 1.211507869917779E+08,
2461309.500000000, A.D. 2026-Sep-26 00:00:00.0000, 1.953122476435357E+08, 2.075853451529398E+08, 1.167956793369486E+08,
2461316.500000000, A.D. 2026-Oct-03 00:00:00.0000, 1.866388886168865E+08, 2.167393396248572E+08, 1.122466052283449E+08,
2461323.500000000, A.D. 2026-Oct-10 00:00:00.0000, 1.776532474562826E+08, 2.255306566416653E+08, 1.075097245330323E+08,
2461330.500000000, A.D. 2026-Oct-17 00:00:00.0000, 1.683683320414144E+08, 2.339420181460667E+08, 1.025917377202893E+08,
2461337.500000000, A.D. 2026-Oct-24 00:00:00.0000, 1.587980462047220E+08, 2.419568452968856E+08, 9.749987212502678E+07,
2461344.500000000, A.D. 2026-Oct-31 00:00:00.0000, 1.489571533265330E+08, 2.495593386340313E+08, 9.224186429707476E+07,
2461351.500000000, A.D. 2026-Nov-07 00:00:00.0000, 1.388612336550823E+08, 2.567345552626459E+08, 8.682593845278388E+07,
2461358.500000000, A.D. 2026-Nov-14 00:00:00.0000, 1.285266357927870E+08, 2.634684830517568E+08, 8.126078118083167E+07,
2461365.500000000, A.D. 2026-Nov-21 00:00:00.0000, 1.179704208831162E+08, 2.697481116470822E+08, 7.555551276924345E+07,
2461372.500000000, A.D. 2026-Nov-28 00:00:00.0000, 1.072102989241420E+08, 2.755614964405982E+08, 6.971965519537891E+07,
2461379.500000000, A.D. 2026-Dec-05 00:00:00.0000, 9.626456134423153E+07, 2.808978140749710E+08, 6.376309666250311E+07,
2461386.500000000, A.D. 2026-Dec-12 00:00:00.0000, 8.515201062203363E+07, 2.857474119087862E+08, 5.769605324984847E+07,
2461393.500000000, A.D. 2026-Dec-19 00:00:00.0000, 7.389188575413500E+07, 2.901018508540496E+08, 5.152902822539546E+07,
2461400.500000000, A.D. 2026-Dec-26 00:00:00.0000, 6.250378418621948E+07, 2.939539402373525E+08, 4.527276938314311E+07,
2461407.500000000, A.D. 2027-Jan-02 00:00:00.0000, 5.100758129546878E+07, 2.972977641342660E+08, 3.893822481491047E+07,
2461414.500000000, A.D. 2027-Jan-09 00:00:00.0000, 3.942334838722802E+07, 3.001286989645475E+08, 3.253649757918943E+07,
2461421.500000000, A.D. 2027-Jan-16 00:00:00.0000, 2.777127010408529E+07, 3.024434222547894E+08, 2.607879974632528E+07,
2461428.500000000, A.D. 2027-Jan-23 00:00:00.0000, 1.607156215443681E+07, 3.042399125556526E+08, 1.957640629391935E+07,
2461435.500000000, A.D. 2027-Jan-30 00:00:00.0000, 4.344390388056561E+06, 3.055174406177206E+08, 1.304060930335054E+07,
2461442.500000000, A.D. 2027-Feb-06 00:00:00.0000, -7.390207556264918E+06, 3.062765524389337E+08, 6.482672901606768E+06,
2461449.500000000, A.D. 2027-Feb-13 00:00:00.0000, -1.911239774296248E+07, 3.065190457937468E+08, -8.621047878240049E+04,
2461456.500000000, A.D. 2027-Feb-20 00:00:00.0000, -3.080262424375845E+07, 3.062479399405339E+08, -6.654961971627370E+06,
2461463.500000000, A.D. 2027-Feb-27 00:00:00.0000, -4.244168024692076E+07, 3.054674358502818E+08, -1.321265630872323E+07,
2461470.500000000, A.D. 2027-Mar-06 00:00:00.0000, -5.401077243892838E+07, 3.041828695300906E+08, -1.974855980935235E+07,
2461477.500000000, A.D. 2027-Mar-13 00:00:00.0000, -6.549157981642313E+07, 3.024006612098230E+08, -2.625216574342412E+07,
2461484.500000000, A.D. 2027-Mar-20 00:00:00.0000, -7.686630770468436E+07, 3.001282602987704E+08, -3.271322681244612E+07,
2461491.500000000, A.D. 2027-Mar-27 00:00:00.0000, -8.811773652581365E+07, 2.973740863275241E+08, -3.912178464097421E+07,
2461498.500000000, A.D. 2027-Apr-03 00:00:00.0000, -9.922926495048867E+07, 2.941474666024500E+08, -4.546819618134484E+07,
2461505.500000000, A.D. 2027-Apr-10 00:00:00.0000, -1.101849472957812E+08, 2.904585713645003E+08, -5.174315696538834E+07,
2461512.500000000, A.D. 2027-Apr-17 00:00:00.0000, -1.209695251527091E+08, 2.863183471859480E+08, -5.793772118325636E+07,
2461519.500000000, A.D. 2027-Apr-24 00:00:00.0000, -1.315684532454768E+08, 2.817384492581203E+08, -6.404331862207807E+07,
2461526.500000000, A.D. 2027-May-01 00:00:00.0000, -1.419679193717582E+08, 2.767311732705272E+08, -7.005176854922634E+07,
2461533.500000000, A.D. 2027-May-08 00:00:00.0000, -1.521548583259622E+08, 2.713093882523639E+08, -7.595529060181393E+07,
2461540.500000000, A.D. 2027-May-15 00:00:00.0000, -1.621169615634660E+08, 2.654864718996436E+08, -8.174651259408286E+07,
2461547.500000000, A.D. 2027-May-22 00:00:00.0000, -1.718426844651708E+08, 2.592762463076699E+08, -8.741847546347471E+07,
2461554.500000000, A.D. 2027-May-29 00:00:00.0000, -1.813212481691296E+08, 2.526929130774120E+08, -9.296463594739370E+07,
2461561.500000000, A.D. 2027-Jun-05 00:00:00.0000, -1.905426354445125E+08, 2.457509913026070E+08, -9.837886699784322E+07,
2461568.500000000, A.D. 2027-Jun-12 00:00:00.0000, -1.994975829888346E+08, 2.384652591943226E+08, -1.036554559148072E+08,
2461575.500000000, A.D. 2027-Jun-19 00:00:00.0000, -2.081775708519644E+08, 2.308506986678940E+08, -1.087891004469620E+08,
2461582.500000000, A.D. 2027-Jun-26 00:00:00.0000, -2.165748090822637E+08, 2.229224428289019E+08, -1.137749031092793E+08,
2461589.500000000, A.D. 2027-Jul-03 00:00:00.0000, -2.246822218343039E+08, 2.146957265108766E+08, -1.186083639313616E+08,
2461596.500000000, A.D. 2027-Jul-10 00:00:00.0000, -2.324934292631243E+08, 2.061858399686926E+08, -1.232853718384369E+08,
2461603.500000000, A.D. 2027-Jul-17 00:00:00.0000, -2.400027275161280E+08, 1.974080857390980E+08, -1.278021948648581E+08,
2461610.500000000, A.D. 2027-Jul-24 00:00:00.0000, -2.472050669957276E+08, 1.883777386157212E+08, -1.321554694047877E+08,
2461617.500000000, A.D. 2027-Jul-31 00:00:00.0000, -2.540960287901257E+08, 1.791100089489061E+08, -1.363421886935611E+08,
2461624.500000000, A.D. 2027-Aug-07 00:00:00.0000, -2.606717997596940E+08, 1.696200103661807E+08, -1.403596905705534E+08,
2461631.500000000, A.D. 2027-Aug-14 00:00:00.0000, -2.669291488447880E+08, 1.599227315790470E+08, -1.442056444852993E+08,
2461638.500000000, A.D. 2027-Aug-21 00:00:00.0000, -2.728654042158914E+08, 1.500330088117237E+08, -1.478780382168404E+08,
2461645.500000000, A.D. 2027-Aug-28 00:00:00.0000, -2.784784280474347E+08, 1.399654999331417E+08, -1.513751646407851E+08,
2461652.500000000, A.D. 2027-Sep-04 00:00:00.0000, -2.837665902930182E+08, 1.297346626521008E+08, -1.546956083388085E+08,
2461659.500000000, A.D. 2027-Sep-11 00:00:00.0000, -2.887287430368309E+08, 1.193547359655567E+08, -1.578382320824062E+08,
2461666.500000000, A.D. 2027-Sep-18 00:00:00.0000, -2.933641954426324E+08, 1.088397240593742E+08, -1.608021633525362E+08,
2461673.500000000, A.D. 2027-Sep-25 00:00:00.0000, -2.976726892023666E+08, 9.820338243050626E+07, -1.635867810055039E+08,
2461680.500000000, A.D. 2027-Oct-02 00:00:00.0000, -3.016543745198136E+08, 8.745920610322100E+07, -1.661917021601911E+08,
2461687.500000000, A.D. 2027-Oct-09 00:00:00.0000, -3.053097866989878E+08, 7.662041978006178E+07, -1.686167693678630E+08,
2461694.500000000, A.D. 2027-Oct-16 00:00:00.0000, -3.086398233499296E+08, 6.569996971932494E+07, -1.708620381232123E+08,
2461701.500000000, A.D. 2027-Oct-23 00:00:00.0000, -3.116457220131167E+08, 5.471051718292563E+07, -1.729277647802355E+08,
2461708.500000000, A.D. 2027-Oct-30 00:00:00.0000, -3.143290378754692E+08, 4.366443391862538E+07, -1.748143948886399E+08,
2461715.500000000, A.D. 2027-Nov-06 00:00:00.0000, -3.166916227772602E+08, 3.257380066300362E+07, -1.765225517762848E+08,
2461722.500000000, A.D. 2027-Nov-13 00:00:00.0000, -3.187356075218418E+08, 2.145040645311592E+07, -1.780530253855103E+08,
2461729.500000000, A.D. 2027-Nov-20 00:00:00.0000, -3.204633846037036E+08, 1.030574643446561E+07, -1.794067618240069E+08,
2461736.500000000, A.D. 2027-Nov-27 00:00:00.0000, -3.218775897438439E+08, -8.489789885928035E+05, -1.805848535432292E+08,
2461743.500000000, A.D. 2027-Dec-04 00:00:00.0000, -3.229810842548233E+08, -1.200286286070269E+07, -1.815885298852055E+08,
2461750.500000000, A.D. 2027-Dec-11 00:00:00.0000, -3.237769387806325E+08, -2.314528931394471E+07, -1.824191480268527E+08,
2461757.500000000, A.D. 2027-Dec-18 00:00:00.0000, -3.242684181262608E+08, -3.426593057501017E+07, -1.830781843737130E+08,
2461764.500000000, A.D. 2027-Dec-25 00:00:00.0000, -3.244589670098340E+08, -4.535474343412025E+07, -1.835672264123778E+08,
2461771.500000000, A.D. 2028-Jan-01 00:00:00.0000, -3.243521966767065E+08, -5.640196524525481E+07, -1.838879650161936E+08,
$$EOE